0 FENGYUN 1C DEB
1 30523U 99025AJM 10006.01217895 +.00000094 +00000-0 +46334-4 0  9995
2 30523 098.9195 025.5664 0259956 145.9833 215.8241 14.22137952153090
0 FENGYUN 1C DEB
1 30522U 99025AJL 10007.29031313  .00000611  00000-0  23401-3 0  9998
2 30522 099.4014 105.6435 0097271 091.0762 270.1602 14.32005185155138
0 FENGYUN 1C DEB
1 30521U 99025AJK 10006.14156628  .00000204  00000-0  69773-4 0  9998
2 30521 098.9843 070.9892 0177956 313.5636 045.0919 14.39471444155641
0 FENGYUN 1C DEB
1 30520U 99025AJJ 10005.10902415  .00000180  00000-0  44691-4 0  9990
2 30520 098.7296 064.1807 0201712 266.4152 091.3919 14.53931893156604
0 FENGYUN 1C DEB
1 30519U 99025AJH 10006.16007334 -.00000222  00000-0 -23418-4 0  9994
2 30519 098.7939 082.5531 0217073 239.3793 118.5555 14.58317438157800
0 FENGYUN 1C DEB
1 30518U 99025AJG 10004.89597870 +.00032478 +00000-0 +20410-2 0  9993
2 30518 099.0778 154.2225 0186661 162.2323 198.5615 14.95818888159209
0 FENGYUN 1C DEB
1 30517U 99025AJF 10007.15663374  .00743400  00000-0  39954-2 0  9994
2 30517 098.8618 181.4728 0045015 331.7331 028.3593 15.76947117162383
0 FENGYUN 1C DEB
1 30516U 99025AJE 10004.35173633  .00000973  00000-0  60295-3 0  9990
2 30516 098.8731 344.3150 0023663 348.1732 011.8875 14.07405527152059
0 FENGYUN 1C DEB
1 30515U 99025AJD 10002.01770363 -.00000041  00000-0 -48325-5 0  9993
2 30515 098.4953 215.6890 0549255 155.6753 207.1396 13.49418761145313
0 FENGYUN 1C DEB
1 30514U 99025AJC 10005.93976173 +.00000226 +00000-0 +10116-3 0  9991
2 30514 098.7517 356.0675 0204971 133.3075 228.5410 14.21047532152682
0 FENGYUN 1C DEB
1 30513U 99025AJB 10007.69279396  .00001218  00000-0  35763-3 0  9995
2 30513 099.0465 072.7484 0166934 053.4865 308.1539 14.38016560156217
0 FENGYUN 1C DEB
1 30512U 99025AJA 10005.19219207  .00000387  00000-0  62075-4 0  9995
2 30512 098.7821 086.8915 0233087 221.8836 136.3873 14.62182669156725
0 FENGYUN 1C DEB
1 30511U 99025AHZ 10002.91033664 +.00093787 +00000-0 +13933-2 0  9995
2 30511 098.8681 170.8110 0080427 359.5002 000.5930 15.51114889161463
0 FENGYUN 1C DEB
1 30510U 99025AHY 10001.85999343  .00000736  00000-0  57411-3 0  9993
2 30510 098.9226 324.4561 0088668 032.2779 328.3676 13.93595344150791
0 FENGYUN 1C DEB
1 30509U 99025AHX 10002.64007320  .00000768  00000-0  66167-3 0  9997
2 30509 098.5018 267.1893 0123176 041.7786 319.2627 13.85871610148259
0 FENGYUN 1C DEB
1 30508U 99025AHW 10002.54372962 +.00001103 +00000-0 +48591-3 0  9997
2 30508 099.3003 021.9993 0350490 142.3470 220.2871 13.97396738151608
0 FENGYUN 1C DEB
1 30507U 99025AHV 10007.90891318  .00000219  00000-0  17113-3 0  9995
2 30507 098.9869 342.8172 0150272 083.7035 278.1217 13.96702614150100
0 FENGYUN 1C DEB
1 30506U 99025AHU 10006.91565493 -.00000113  00000-0 -41991-4 0  9993
2 30506 099.0278 000.8006 0075950 055.1297 305.6988 14.04459294150759
0 FENGYUN 1C DEB
1 30505U 99025AHT 10002.45536607  .00000397  00000-0  29001-3 0  9991
2 30505 098.9673 340.6535 0077819 334.3385 025.3911 14.00394866149718
0 FENGYUN 1C DEB
1 30504U 99025AHS 10002.79749784  .00000056  00000-0  49954-4 0  9991
2 30504 098.6546 323.1270 0124697 193.5976 166.1888 14.11725164151220
0 FENGYUN 1C DEB
1 30503U 99025AHR 10004.03178005  .00000127  00000-0  96063-4 0  9993
2 30503 099.2053 040.0969 0010164 101.9967 258.2370 14.11407917151519
0 FENGYUN 1C DEB
1 30502U 99025AHQ 10001.99874140 +.00006165 +00000-0 +63921-3 0  9991
2 30502 098.9079 108.3136 0224149 205.3666 153.6418 14.73628133157375
0 FENGYUN 1C DEB
1 30501U 99025AHP 10001.08683645  .00000844  00000-0  57920-3 0  9998
2 30501 098.7807 321.8337 0053030 029.4609 330.9467 14.01482839150006
0 FENGYUN 1C DEB
1 30500U 99025AHN 10005.87696145 +.00000732 +00000-0 +56560-3 0  9992
2 30500 099.0202 340.2986 0090251 068.0675 293.0055 13.94086760149926
0 FENGYUN 1C DEB
1 30499U 99025AHM 10002.54131644  .00000801  00000-0  29063-3 0  9993
2 30499 099.0260 044.5533 0182405 004.5340 355.7426 14.27492896153220
0 FENGYUN 1C DEB
1 30498U 99025AHL 10007.38414904  .00000480  00000-0  43414-3 0  9991
2 30498 099.1478 341.6877 0123140 099.9926 261.5152 13.85154252149399
0 FENGYUN 1C DEB
1 30497U 99025AHK 10007.86124806  .00000983  00000-0  37530-3 0  9992
2 30497 099.1612 065.0411 0144556 133.7756 227.5546 14.27579040154074
0 FENGYUN 1C DEB
1 30496U 99025AHJ 10001.12761957  .00000296  00000-0  56247-4 0  9992
2 30496 098.7873 076.8257 0223041 253.3557 104.3052 14.58428686156631
0 FENGYUN 1C DEB
1 30495U 99025AHH 10003.94016042 -.00000130  00000-0 -14682-3 0  9996
2 30495 102.2736 113.3086 0630447 135.8624 229.4591 12.82200446138170
0 FENGYUN 1C DEB
1 30494U 99025AHG 10005.93549977 +.00000146 +00000-0 +19404-3 0  9996
2 30494 099.5943 000.0289 0204357 223.8600 134.6151 13.68289624147475
0 FENGYUN 1C DEB
1 30493U 99025AHF 10004.55286280  .00001037  00000-0  98086-3 0  9990
2 30493 098.6309 263.9461 0209989 149.3553 212.0072 13.73665827147446
0 FENGYUN 1C DEB
1 30492U 99025AHE 10007.92532987  .00000512  00000-0  40668-3 0  9991
2 30492 102.3113 357.4155 0195577 351.0409 008.7258 13.89763602150389
0 FENGYUN 1C DEB
1 30491U 99025AHD 10007.79754663  .00000727  00000-0  43911-3 0  9994
2 30491 101.5399 315.7447 0045819 304.2674 055.4152 14.10814620152165
0 FENGYUN 1C DEB
1 30490U 99025AHC 10007.53712511  .00000419  00000-0  12663-3 0  9999
2 30490 098.7309 009.1564 0277342 090.7099 272.5841 14.27610379153635
0 FENGYUN 1C DEB
1 30489U 99025AHB 10001.55720145 -.00000068  00000-0 -10313-4 0  9998
2 30489 099.1521 030.2616 0146641 251.7999 106.7179 14.11296360151826
0 FENGYUN 1C DEB
1 30488U 99025AHA 10007.21369296  .00001642  00000-0  32159-3 0  9990
2 30488 098.9920 093.8490 0184267 298.1639 060.1101 14.54237363156909
0 FENGYUN 1C DEB
1 30487U 99025AGZ 10007.75051478  .00003353  00000-0  31275-3 0  9997
2 30487 098.6717 091.2236 0259233 151.4724 210.1018 14.72857764158371
0 FENGYUN 1C DEB
1 30486U 99025AGY 10002.16708454 +.00000402 +00000-0 +68092-4 0  9999
2 30486 098.8210 084.6307 0230304 251.3757 106.2303 14.60163486156298
0 FENGYUN 1C DEB
1 30485U 99025AGX 10006.01755825 +.00000730 +00000-0 +34456-3 0  9990
2 30485 099.0533 029.9613 0160958 201.0339 158.4165 14.16361469153457
0 FENGYUN 1C DEB
1 30484U 99025AGW 10007.67838097  .00000999  00000-0  33039-3 0  9998
2 30484 099.0210 067.5893 0115813 027.6108 333.1150 14.36646699155228
0 FENGYUN 1C DEB
1 30483U 99025AGV 10002.67772423 +.00000745 +00000-0 +18677-3 0  9992
2 30483 098.9862 063.3935 0242140 310.2306 047.7915 14.38763162154171
0 FENGYUN 1C DEB
1 30481U 99025AGT 10007.53830150  .00000175  00000-0  66486-4 0  9991
2 30481 098.7025 359.6822 0264302 099.9167 263.1960 14.25053522153579
0 FENGYUN 1C DEB
1 30480U 99025AGS 10004.04220028  .00000044  00000-0  32534-4 0  9992
2 30480 098.9129 033.7528 0178812 349.1827 010.5560 14.27416266155168
0 FENGYUN 1C DEB
1 30478U 99025AGR 10001.58724184 +.00001046 +00000-0 +35462-3 0  9992
2 30478 098.9624 050.9252 0111029 050.2499 310.8369 14.35566704152726
0 FENGYUN 1C DEB
1 30477U 99025AGQ 10002.15632180 +.00000695 +00000-0 +11564-2 0  9994
2 30477 099.4084 248.3724 0458042 093.7947 271.5789 13.14456228140289
0 FENGYUN 1C DEB
1 30476U 99025AGP 10002.66846799  .00000798  00000-0  56365-3 0  9995
2 30476 098.8299 324.6721 0063775 035.2115 325.3265 13.99766294149610
0 FENGYUN 1C DEB
1 30475U 99025AGN 10002.51918295 +.00000229 +00000-0 +17420-3 0  9997
2 30475 099.0399 354.8838 0050960 045.3049 315.2186 14.02875173150240
0 FENGYUN 1C DEB
1 30474U 99025AGM 10002.59001888  .00000828  00000-0  54030-3 0  9998
2 30474 098.8176 332.4551 0035603 359.6604 000.4500 14.04758837150532
0 FENGYUN 1C DEB
1 30473U 99025AGL 10002.62811233 +.00000816 +00000-0 +49084-3 0  9994
2 30473 098.7682 335.1898 0018057 356.1857 003.9144 14.09509450151175
0 FENGYUN 1C DEB
1 30472U 99025AGK 10001.92091391  .00000718  00000-0  39219-3 0  9990
2 30472 098.8819 354.7805 0066322 042.3036 318.3206 14.14072498151022
0 FENGYUN 1C DEB
1 30471U 99025AGJ 10002.93152642 +.00000297 +00000-0 +24516-3 0  9994
2 30471 099.0971 345.0649 0106984 098.4023 262.9265 13.94078020149041
0 FENGYUN 1C DEB
1 30470U 99025AGH 10005.46075461 -.00003156  00000-0 -29047-2 0  9999
2 30470 098.2866 278.6105 0143198 099.7933 261.9627 13.77576342149125
0 FENGYUN 1C DEB
1 30469U 99025AGG 10005.68111973  .00000507  00000-0  42863-3 0  9997
2 30469 098.5369 271.6364 0179695 002.9644 357.2446 13.84629356149265
0 FENGYUN 1C DEB
1 30468U 99025AGF 10001.66748717  .00000897  00000-0  62687-3 0  9990
2 30468 099.0113 342.4808 0095654 081.0677 280.1294 13.98884923149378
0 FENGYUN 1C DEB
1 30467U 99025AGE 10002.63851218 +.00000136 +00000-0 +11180-3 0  9996
2 30467 099.0354 356.9259 0075013 298.3542 061.0064 14.04156537151808
0 FENGYUN 1C DEB
1 30466U 99025AGD 10002.91681828 +.00000512 +00000-0 +31583-3 0  9991
2 30466 099.0730 005.3163 0142143 282.0522 076.4757 14.05186164151956
0 FENGYUN 1C DEB
1 30465U 99025AGC 10002.90341439 +.00000746 +00000-0 +47728-3 0  9997
2 30465 098.8990 343.3651 0028313 007.4185 352.7313 14.06299056150192
0 FENGYUN 1C DEB
1 30464U 99025AGB 10002.80650302 +.00000075 +00000-0 +64218-4 0  9996
2 30464 098.7820 332.1771 0111585 038.5382 322.3711 14.08688769151202
0 FENGYUN 1C DEB
1 30463U 99025AGA 10007.17149903  .00265369  00000-0  25866-2 0  9993
2 30463 098.8893 180.8533 0061075 338.9859 020.9715 15.63044021163825
0 FENGYUN 1C DEB
1 30462U 99025AFZ 10002.95241943 -.00000109 +00000-0 -36825-4 0  9990
2 30462 099.1254 009.0506 0144246 297.6509 061.0081 14.03187203150805
0 FENGYUN 1C DEB
1 30461U 99025AFY 10002.84907932 +.00027387 +00000-0 +14746-2 0  9995
2 30461 098.8946 136.6635 0160710 110.3380 251.4971 15.04299773159877
0 FENGYUN 1C DEB
1 30460U 99025AFX 10005.75101211  .00012890  00000-0  82757-3 0  9994
2 30460 098.7154 109.0773 0211340 107.7431 254.7075 14.91981177159654
0 FENGYUN 1C DEB
1 30459U 99025AFW 10006.48746588  .00009893  00000-0  25255-3 0  9994
2 30459 099.0895 194.4488 0246624 044.3051 317.7575 15.14221554161881
